NORAD_CAT_ID,OBJECT_NAME,OBJECT_TYPE,EPOCH,MEAN_MOTION,ECCENTRICITY,INCLINATION,RA_OF_ASC_NODE,ARG_OF_PERICENTER,MEAN_ANOMALY,BSTAR,MEAN_MOTION_DOT,MEAN_MOTION_DDOT,TLE_LINE0,TLE_LINE1,TLE_LINE2,SEMIMAJOR_AXIS,PERIOD,APOGEE,PERIGEE,DECAYED
52868.0,STARLINK-4261,PAYLOAD,2023-06-18 06:28:02,15.08837597,9.84e-05,53.217,172.765,84.0026,276.1078,3.8257e-06,-2.27e-06,0.0,0 STARLINK-4261,1 52868U 22062AQ  23169.26947690 -.00000227  00000-0  38257-5 0  9997,2 52868  53.2170 172.7650 0000984  84.0026 276.1078 15.08837597 56148,6917.888,95.438,540.433,539.072,0.0
52868.0,STARLINK-4261,PAYLOAD,2023-06-18 17:35:44,15.08840575,9.57e-05,53.2169,170.6837,81.888,278.222,5.1133e-05,5.26e-06,0.0,0 STARLINK-4261,1 52868U 22062AQ  23169.73315298  .00000526  00000-0  51133-4 0  9990,2 52868  53.2169 170.6837 0000957  81.8880 278.2220 15.08840575 55728,6917.879,95.438,540.406,539.082,0.0
52868.0,STARLINK-4261,PAYLOAD,2023-06-19 06:18:49,15.08842011,8.95e-05,53.2165,168.3043,83.2629,276.8465,0.00011497,1.543e-05,0.0,0 STARLINK-4261,1 52868U 22062AQ  23170.26306968  .00001543  00000-0  11497-3 0  9992,2 52868  53.2165 168.3043 0000895  83.2629 276.8465 15.08842011 56290,6917.874,95.437,540.358,539.12,0.0
52868.0,STARLINK-4261,PAYLOAD,2023-06-19 17:26:31,15.0884078,8.73e-05,53.2161,166.2229,82.0033,278.1059,7.33e-05,8.79e-06,0.0,0 STARLINK-4261,1 52868U 22062AQ  23170.72675126  .00000879  00000-0  73300-4 0  9991,2 52868  53.2161 166.2229 0000873  82.0033 278.1059 15.08840780 55879,6917.878,95.438,540.347,539.139,0.0
52868.0,STARLINK-4261,PAYLOAD,2023-06-20 09:20:22,15.08839665,9.11e-05,53.2162,163.2493,81.8,278.3095,2.0054e-05,3.1e-07,0.0,0 STARLINK-4261,1 52868U 22062AQ  23171.38915347  .00000031  00000-0  20054-4 0  9994,2 52868  53.2162 163.2493 0000911  81.8000 278.3095 15.08839665 56462,6917.881,95.438,540.377,539.116,0.0
52868.0,STARLINK-4261,PAYLOAD,2023-06-21 04:25:00,15.08841204,9.57e-05,53.2163,159.6805,85.328,274.7822,-1.6305e-05,-5.47e-06,0.0,0 STARLINK-4261,1 52868U 22062AQ  23172.18403350 -.00000547  00000-0 -16305-4 0  9997,2 52868  53.2163 159.6805 0000957  85.3280 274.7822 15.08841204 56097,6917.877,95.437,540.404,539.08,0.0
52868.0,STARLINK-4261,PAYLOAD,2023-06-21 15:32:42,15.08839025,9.97e-05,53.2164,157.5993,86.4341,273.6765,-1.4603e-06,-3.11e-06,0.0,0 STARLINK-4261,1 52868U 22062AQ  23172.64771431 -.00000311  00000-0 -14603-5 0  9995,2 52868  53.2164 157.5993 0000997  86.4341 273.6765 15.08839025 56651,6917.883,95.438,540.438,539.059,0.0
52868.0,STARLINK-4261,PAYLOAD,2023-06-23 02:31:11,15.08838173,9.97e-05,53.2166,151.0576,86.036,274.0746,4.2294e-05,3.85e-06,0.0,0 STARLINK-4261,1 52868U 22062AQ  23174.10499591  .00000385  00000-0  42294-4 0  9997,2 52868  53.2166 151.0576 0000997  86.0360 274.0746 15.08838173 56877,6917.886,95.438,540.441,539.061,0.0
52868.0,STARLINK-4261,PAYLOAD,2023-06-24 07:08:08,15.08839057,0.0001007,53.2163,145.7053,87.9216,272.1891,3.8863e-05,3.31e-06,0.0,0 STARLINK-4261,1 52868U 22062AQ  23175.29731779  .00000331  00000-0  38863-4 0  9993,2 52868  53.2163 145.7053 0001007  87.9216 272.1891 15.08839057 57050,6917.883,95.438,540.445,539.052,0.0
52868.0,STARLINK-4261,PAYLOAD,2023-06-25 14:55:51,15.08839289,0.0001165,53.2161,139.7578,86.7523,273.3602,-1.054e-05,-4.56e-06,0.0,0 STARLINK-4261,1 52868U 22062AQ  23176.62212028 -.00000456  00000-0 -10540-4 0  9994,2 52868  53.2161 139.7578 0001165  86.7523 273.3602 15.08839289 57258,6917.883,95.438,540.553,538.942,0.0
52868.0,STARLINK-4261,PAYLOAD,2023-06-27 03:29:43,15.08838775,0.0001134,53.2168,132.9181,93.1484,266.9638,4.3291e-05,4.01e-06,0.0,0 STARLINK-4261,1 52868U 22062AQ  23178.14564207  .00000401  00000-0  43291-4 0  9999,2 52868  53.2168 132.9181 0001134  93.1484 266.9638 15.08838775 57485,6917.884,95.438,540.534,538.965,0.0
52868.0,STARLINK-4261,PAYLOAD,2023-06-28 06:31:16,15.0884078,0.0001308,53.2168,127.8628,95.212,264.9022,6.4308e-05,7.36e-06,0.0,0 STARLINK-4261,1 52868U 22062AQ  23179.27172064  .00000736  00000-0  64308-4 0  9993,2 52868  53.2168 127.8628 0001308  95.2120 264.9022 15.08840780 57650,6917.878,95.438,540.648,538.838,0.0
52868.0,STARLINK-4261,PAYLOAD,2023-06-29 03:11:18,15.0883441,0.0001326,53.2174,123.9964,96.0858,264.0285,-1.859e-05,-5.84e-06,0.0,0 STARLINK-4261,1 52868U 22062AQ  23180.13284948 -.00000584  00000-0 -18590-4 0  9990,2 52868  53.2174 123.9964 0001326  96.0858 264.0285 15.08834410 57783,6917.897,95.438,540.68,538.845,0.0
52868.0,STARLINK-4261,PAYLOAD,2023-06-30 12:34:23,15.08838541,0.000115,53.2166,117.7541,86.7523,273.3601,-1.593e-05,-5.41e-06,0.0,0 STARLINK-4261,1 52868U 22062AQ  23181.52388762 -.00000541  00000-0 -15930-4 0  9991,2 52868  53.2166 117.7541 0001150  86.7523 273.3601 15.08838541 57993,6917.885,95.438,540.545,538.954,0.0
52868.0,STARLINK-4261,PAYLOAD,2023-07-02 01:08:16,15.08837807,0.0001166,53.217,110.9149,97.4206,262.6919,-2.186e-05,-6.36e-06,0.0,0 STARLINK-4261,1 52868U 22062AQ  23183.04741364 -.00000636  00000-0 -21860-4 0  9995,2 52868  53.2170 110.9149 0001166  97.4206 262.6919 15.08837807 58225,6917.887,95.438,540.559,538.945,0.0
52868.0,STARLINK-4261,PAYLOAD,2023-07-03 02:34:26,15.08845871,0.0001159,53.2174,106.1567,93.8216,266.2909,9.0312e-05,1.15e-05,0.0,0 STARLINK-4261,1 52868U 22062AQ  23184.10724596  .00001150  00000-0  90312-4 0  9999,2 52868  53.2174 106.1567 0001159  93.8216 266.2909 15.08845871 58389,6917.862,95.437,540.529,538.926,0.0
52868.0,STARLINK-4261,PAYLOAD,2023-07-03 12:06:45,15.08836484,0.0001068,53.2171,104.3711,91.7759,268.3355,-1.1265e-05,-4.67e-06,0.0,0 STARLINK-4261,1 52868U 22062AQ  23184.50469432 -.00000467  00000-0 -11265-4 0  9990,2 52868  53.2171 104.3711 0001068  91.7759 268.3355 15.08836484 58440,6917.891,95.438,540.495,539.017,0.0
52868.0,STARLINK-4261,PAYLOAD,2023-07-05 00:40:36,15.08852451,0.000124,53.2181,97.5304,99.7714,260.3418,1.4279e-05,-6.1e-07,0.0,0 STARLINK-4261,1 52868U 22062AQ  23186.02820314 -.00000061  00000-0  14279-4 0  9996,2 52868  53.2181  97.5304 0001240  99.7714 260.3418 15.08852451 58672,6917.842,95.437,540.565,538.85,0.0
52868.0,STARLINK-4261,PAYLOAD,2023-07-06 00:31:26,15.08825498,0.0001434,53.2182,93.0681,102.055,258.0602,-4.3745e-05,-9.84e-06,0.0,0 STARLINK-4261,1 52868U 22062AQ  23187.02183060 -.00000984  00000-0 -43745-4 0  9992,2 52868  53.2182  93.0681 0001434 102.0550 258.0602 15.08825498 58820,6917.925,95.438,540.782,538.798,0.0
52868.0,STARLINK-4261,PAYLOAD,2023-07-06 18:00:40,15.08836006,9.96e-05,53.2175,89.8029,94.4623,265.6483,-4.4551e-05,-9.97e-06,0.0,0 STARLINK-4261,1 52868U 22062AQ  23187.75046871 -.00000997  00000-0 -44551-4 0  9990,2 52868  53.2175  89.8029 0000996  94.4623 265.6483 15.08836006 58938,6917.893,95.438,540.447,539.069,0.0
52868.0,STARLINK-4261,PAYLOAD,2023-07-07 00:22:12,15.08843168,0.0001005,53.2174,88.6132,95.7315,264.3792,1.9614e-05,2.4e-07,0.0,0 STARLINK-4261,1 52868U 22062AQ  23188.01542274  .00000024  00000-0  19614-4 0  9999,2 52868  53.2174  88.6132 0001005  95.7315 264.3792 15.08843168 58973,6917.871,95.437,540.431,539.04,0.0
52868.0,STARLINK-4261,PAYLOAD,2023-07-08 09:45:17,15.08846935,9.34e-05,53.2177,82.3688,93.5903,266.5196,0.00023522,3.458e-05,0.0,0 STARLINK-4261,1 52868U 22062AQ  23189.40645794  .00003458  00000-0  23522-3 0  9990,2 52868  53.2177  82.3688 0000934  93.5903 266.5196 15.08846935 59183,6917.859,95.437,540.37,539.078,0.0
52868.0,STARLINK-4261,PAYLOAD,2023-07-08 19:17:37,15.08839958,0.0001076,53.2175,80.5843,93.0429,267.0686,-9.6031e-07,-3.03e-06,0.0,0 STARLINK-4261,1 52868U 22062AQ  23189.80390917 -.00000303  00000-0 -96031-6 0  9994,2 52868  53.2175  80.5843 0001076  93.0429 267.0686 15.08839958 59244,6917.881,95.438,540.49,539.001,0.0
52868.0,STARLINK-4261,PAYLOAD,2023-07-09 01:39:09,15.08845473,0.0001027,53.2176,79.3951,91.9451,268.1658,5.6774e-05,6.16e-06,0.0,0 STARLINK-4261,1 52868U 22062AQ  23190.06886459  .00000616  00000-0  56774-4 0  9998,2 52868  53.2176  79.3951 0001027  91.9451 268.1658 15.08845473 59283,6917.864,95.437,540.439,539.018,0.0
52868.0,STARLINK-4261,PAYLOAD,2023-07-10 09:26:51,15.08847762,0.0001061,53.2169,73.447,90.6298,269.4816,-4.4389e-06,-3.58e-06,0.0,0 STARLINK-4261,1 52868U 22062AQ  23191.39365598 -.00000358  00000-0 -44389-5 0  9996,2 52868  53.2169  73.4470 0001061  90.6298 269.4816 15.08847762 59484,6917.857,95.437,540.456,538.988,0.0
52868.0,STARLINK-4261,PAYLOAD,2023-07-11 22:00:44,15.08843474,0.0001253,53.2172,66.6058,98.7966,261.3168,2.6538e-05,1.35e-06,0.0,0 STARLINK-4261,1 52868U 22062AQ  23192.91717834  .00000135  00000-0  26538-4 0  9995,2 52868  53.2172  66.6058 0001253  98.7966 261.3168 15.08843474 59711,6917.87,95.437,540.602,538.868,0.0
52868.0,STARLINK-4261,PAYLOAD,2023-07-13 15:20:46,15.0883245,0.0001323,53.2183,58.8747,94.715,265.3993,0.00024247,3.572e-05,0.0,0 STARLINK-4261,1 52868U 22062AQ  23194.63942568  .00003572  00000-0  24247-3 0  9992,2 52868  53.2183  58.8747 0001323  94.7150 265.3993 15.08832450 59970,6917.903,95.438,540.684,538.853,0.0
52868.0,STARLINK-4261,PAYLOAD,2023-07-15 00:43:51,15.08851859,0.0001133,53.2175,52.6315,79.3141,280.7979,0.00026631,3.954e-05,0.0,0 STARLINK-4261,1 52868U 22062AQ  23196.03045753  .00003954  00000-0  26631-3 0  9991,2 52868  53.2175  52.6315 0001133  79.3141 280.7979 15.08851859 60186,6917.844,95.437,540.493,538.925,0.0
52868.0,STARLINK-4261,PAYLOAD,2023-07-15 07:05:24,15.08844286,0.0001201,53.2177,51.4408,78.6416,281.4711,0.00014926,2.089e-05,0.0,0 STARLINK-4261,1 52868U 22062AQ  23196.29542096  .00002089  00000-0  14926-3 0  9993,2 52868  53.2177  51.4408 0001201  78.6416 281.4711 15.08844286 60224,6917.867,95.437,540.563,538.901,0.0
52868.0,STARLINK-4261,PAYLOAD,2023-07-16 06:56:11,15.08839354,0.0001017,53.2172,46.9828,88.3328,271.7781,1.9207e-05,1.8e-07,0.0,0 STARLINK-4261,1 52868U 22062AQ  23197.28902265  .00000018  00000-0  19207-4 0  9999,2 52868  53.2172  46.9828 0001017  88.3328 271.7781 15.08839354 60374,6917.882,95.438,540.451,539.044,0.0
